{"type": "FeatureCollection", "features": [ {"type": "Feature", "properties": {"norad_id": 31258, "name": "FENGYUN 1C DEB", "group": "fengyun-1c-debris", "lat": 6.688037516213521, "lon": -54.146190014884894, "alt_km": 542.9588045705559, "timestamp": "2025-12-03T08:58:46.283024+00:00", "meta": {"OBJECT_NAME": "FENGYUN 1C DEB", "OBJECT_ID": "1999-025BMQ", "EPOCH": "2025-12-02T08:27:39.629664", "MEAN_MOTION": 15.07913203, "ECCENTRICITY": 0.00043213, "INCLINATION": 98.8518, "RA_OF_ASC_NODE": 123.6313, "ARG_OF_PERICENTER": 251.7351, "MEAN_ANOMALY": 138.4381, "EPHEMERIS_TYPE": 0, "CLASSIFICATION_TYPE": "U", "NORAD_CAT_ID": 31258, "ELEMENT_SET_NO": 999, "REV_AT_EPOCH": 96954, "BSTAR": 0.010183049, "MEAN_MOTION_DOT": 0.00159704, "MEAN_MOTION_DDOT": 0}, "tle": {"line1": "1 31258U 99025BMQ 25336.35254201  .00159704  00000+0  10183-1 0  9994", "line2": "2 31258  98.8518 123.6313 0004321 251.7351 138.4381 15.07913203969545"}}, "geometry": {"type": "Point", "coordinates": [-54.146190014884894, 6.688037516213521]}}, {"type": "Feature", "properties": {"norad_id": 31259, "name": "FENGYUN 1C DEB", "group": "fengyun-1c-debris", "lat": 54.87631658234966, "lon": 43.44419785173156, "alt_km": 883.1070869216601, "timestamp": "2025-12-03T08:58:46.283034+00:00", "meta": {"OBJECT_NAME": "FENGYUN 1C DEB", "OBJECT_ID": "1999-025BMR", "EPOCH": "2025-12-03T03:46:02.117280", "MEAN_MOTION": 14.14917036, "ECCENTRICITY": 0.0065426, "INCLINATION": 99.0107, "RA_OF_ASC_NODE": 56.2617, "ARG_OF_PERICENTER": 222.333, "MEAN_ANOMALY": 168.1959, "EPHEMERIS_TYPE": 0, "CLASSIFICATION_TYPE": "U", "NORAD_CAT_ID": 31259, "ELEMENT_SET_NO": 999, "REV_AT_EPOCH": 95434, "BSTAR": 0.0025554, "MEAN_MOTION_DOT": 4.998e-05, "MEAN_MOTION_DDOT": 0}, "tle": {"line1": "1 31259U 99025BMR 25337.15696895  .00004998  00000+0  25554-2 0  9996", "line2": "2 31259  99.0107  56.2617 0065426 222.3330 168.1959 14.14917036954343"}}, "geometry": {"type": "Point", "coordinates": [43.44419785173156, 54.87631658234966]}}, {"type": "Feature", "properties": {"norad_id": 31260, "name": "FENGYUN 1C DEB", "group": "fengyun-1c-debris", "lat": 40.06237892425691, "lon": 61.56553971600887, "alt_km": 801.7255738328186, "timestamp": "2025-12-03T08:58:46.283045+00:00", "meta": {"OBJECT_NAME": "FENGYUN 1C DEB", "OBJECT_ID": "1999-025BMS", "EPOCH": "2025-12-02T04:37:21.641376", "MEAN_MOTION": 14.36316169, "ECCENTRICITY": 0.0047867, "INCLINATION": 98.9566, "RA_OF_ASC_NODE": 232.7164, "ARG_OF_PERICENTER": 323.6841, "MEAN_ANOMALY": 189.6044, "EPHEMERIS_TYPE": 0, "CLASSIFICATION_TYPE": "U", "NORAD_CAT_ID": 31260, "ELEMENT_SET_NO": 999, "REV_AT_EPOCH": 97042, "BSTAR": 0.0012493357, "MEAN_MOTION_DOT": 3.655e-05, "MEAN_MOTION_DDOT": 0}, "tle": {"line1": "1 31260U 99025BMS 25336.19261159  .00003655  00000+0  12493-2 0  9999", "line2": "2 31260  98.9566 232.7164 0047867 323.6841 189.6044 14.36316169970425"}}, "geometry": {"type": "Point", "coordinates": [61.56553971600887, 40.06237892425691]}}, {"type": "Feature", "properties": {"norad_id": 31261, "name": "FENGYUN 1C DEB", "group": "fengyun-1c-debris", "lat": 31.696609006095166, "lon": -75.33113369105726, "alt_km": 780.1119353838285, "timestamp": "2025-12-03T08:58:46.283057+00:00", "meta": {"OBJECT_NAME": "FENGYUN 1C DEB", "OBJECT_ID": "1999-025BMT", "EPOCH": "2025-12-02T16:09:13.184064", "MEAN_MOTION": 14.39970685, "ECCENTRICITY": 0.0050249, "INCLINATION": 99.0133, "RA_OF_ASC_NODE": 289.5565, "ARG_OF_PERICENTER": 263.3863, "MEAN_ANOMALY": 96.1602, "EPHEMERIS_TYPE": 0, "CLASSIFICATION_TYPE": "U", "NORAD_CAT_ID": 31261, "ELEMENT_SET_NO": 999, "REV_AT_EPOCH": 97205, "BSTAR": 0.0014583, "MEAN_MOTION_DOT": 4.613e-05, "MEAN_MOTION_DDOT": 0}, "tle": {"line1": "1 31261U 99025BMT 25336.67306926  .00004613  00000+0  14583-2 0  9992", "line2": "2 31261  99.0133 289.5565 0050249 263.3863  96.1602 14.39970685972050"}}, "geometry": {"type": "Point", "coordinates": [-75.33113369105726, 31.696609006095166]}}, {"type": "Feature", "properties": {"norad_id": 31262, "name": "FENGYUN 1C DEB", "group": "fengyun-1c-debris", "lat": 65.57755732956984, "lon": 40.26543138861728, "alt_km": 803.1808962531732, "timestamp": "2025-12-03T08:58:46.283067+00:00", "meta": {"OBJECT_NAME": "FENGYUN 1C DEB", "OBJECT_ID": "1999-025BMU", "EPOCH": "2025-11-30T04:46:33.127392", "MEAN_MOTION": 14.18042143, "ECCENTRICITY": 0.00563242, "INCLINATION": 99.0029, "RA_OF_ASC_NODE": 57.4808, "ARG_OF_PERICENTER": 133.2827, "MEAN_ANOMALY": 294.3908, "EPHEMERIS_TYPE": 0, "CLASSIFICATION_TYPE": "U", "NORAD_CAT_ID": 31262, "ELEMENT_SET_NO": 999, "REV_AT_EPOCH": 95531, "BSTAR": 0.0019906642, "MEAN_MOTION_DOT": 4.101e-05, "MEAN_MOTION_DDOT": 0}, "tle": {"line1": "1 31262U 99025BMU 25334.19899453  .00004101  00000+0  19907-2 0  9997", "line2": "2 31262  99.0029  57.4808 0056324 133.2827 294.3908 14.18042143955319"}}, "geometry": {"type": "Point", "coordinates": [40.26543138861728, 65.57755732956984]}}, {"type": "Feature", "properties": {"norad_id": 31263, "name": "FENGYUN 1C DEB", "group": "fengyun-1c-debris", "lat": -25.620141552420172, "lon": 75.02328485384456, "alt_km": 468.0122663884349, "timestamp": "2025-12-03T08:58:46.283077+00:00", "meta": {"OBJECT_NAME": "FENGYUN 1C DEB", "OBJECT_ID": "1999-025BMV", "EPOCH": "2025-12-02T05:28:06.379104", "MEAN_MOTION": 15.33155471, "ECCENTRICITY": 0.0015568, "INCLINATION": 98.996, "RA_OF_ASC_NODE": 257.9864, "ARG_OF_PERICENTER": 121.7691, "MEAN_ANOMALY": 238.5066, "EPHEMERIS_TYPE": 0, "CLASSIFICATION_TYPE": "U", "NORAD_CAT_ID": 31263, "ELEMENT_SET_NO": 999, "REV_AT_EPOCH": 97004, "BSTAR": 0.016206, "MEAN_MOTION_DOT": 0.00559994, "MEAN_MOTION_DDOT": 0}, "tle": {"line1": "1 31263U 99025BMV 25336.22785161  .00559994  00000+0  16206-1 0  9997", "line2": "2 31263  98.9960 257.9864 0015568 121.7691 238.5066 15.33155471970046"}}, "geometry": {"type": "Point", "coordinates": [75.02328485384456, -25.620141552420172]}}, {"type": "Feature", "properties": {"norad_id": 31264, "name": "FENGYUN 1C DEB", "group": "fengyun-1c-debris", "lat": 25.247336772987534, "lon": -130.24004030239718, "alt_km": 828.4329697385201, "timestamp": "2025-12-03T08:58:46.283089+00:00", "meta": {"OBJECT_NAME": "FENGYUN 1C DEB", "OBJECT_ID": "1999-025BMW", "EPOCH": "2025-12-02T11:42:10.884672", "MEAN_MOTION": 14.1855128, "ECCENTRICITY": 0.00013742, "INCLINATION": 99.1144, "RA_OF_ASC_NODE": 233.1912, "ARG_OF_PERICENTER": 15.7646, "MEAN_ANOMALY": 165.1682, "EPHEMERIS_TYPE": 0, "CLASSIFICATION_TYPE": "U", "NORAD_CAT_ID": 31264, "ELEMENT_SET_NO": 999, "REV_AT_EPOCH": 96283, "BSTAR": 0.00076770164, "MEAN_MOTION_DOT": 1.542e-05, "MEAN_MOTION_DDOT": 0}, "tle": {"line1": "1 31264U 99025BMW 25336.48762598  .00001542  00000+0  76770-3 0  9990", "line2": "2 31264  99.1144 233.1912 0001374  15.7646 165.1682 14.18551280962833"}}, "geometry": {"type": "Point", "coordinates": [-130.24004030239718, 25.247336772987534]}}, {"type": "Feature", "properties": {"norad_id": 31266, "name": "FENGYUN 1C DEB", "group": "fengyun-1c-debris", "lat": -67.37812748157498, "lon": -17.021567047746384, "alt_km": 736.8677896884847, "timestamp": "2025-12-03T08:58:46.283100+00:00", "meta": {"OBJECT_NAME": "FENGYUN 1C DEB", "OBJECT_ID": "1999-025BMY", "EPOCH": "2025-12-02T10:23:03.770592", "MEAN_MOTION": 14.22304829, "ECCENTRICITY": 0.01299859, "INCLINATION": 99.2561, "RA_OF_ASC_NODE": 318.9525, "ARG_OF_PERICENTER": 313.7252, "MEAN_ANOMALY": 199.6597, "EPHEMERIS_TYPE": 0, "CLASSIFICATION_TYPE": "U", "NORAD_CAT_ID": 31266, "ELEMENT_SET_NO": 999, "REV_AT_EPOCH": 97059, "BSTAR": 0.0004870238, "MEAN_MOTION_DOT": 1.13e-05, "MEAN_MOTION_DDOT": 0}, "tle": {"line1": "1 31266U 99025BMY 25336.43268253  .00001130  00000+0  48702-3 0  9993", "line2": "2 31266  99.2561 318.9525 0129985 313.7252 199.6597 14.22304829970593"}}, "geometry": {"type": "Point", "coordinates": [-17.021567047746384, -67.37812748157498]}}, {"type": "Feature", "properties": {"norad_id": 31268, "name": "FENGYUN 1C DEB", "group": "fengyun-1c-debris", "lat": -70.72683451068384, "lon": 173.7297671012046, "alt_km": 852.9229197607483, "timestamp": "2025-12-03T08:58:46.283112+00:00", "meta": {"OBJECT_NAME": "FENGYUN 1C DEB", "OBJECT_ID": "1999-025BNA", "EPOCH": "2025-11-30T20:01:13.105344", "MEAN_MOTION": 14.06369123, "ECCENTRICITY": 0.00492969, "INCLINATION": 98.7575, "RA_OF_ASC_NODE": 17.4295, "ARG_OF_PERICENTER": 216.6529, "MEAN_ANOMALY": 143.1264, "EPHEMERIS_TYPE": 0, "CLASSIFICATION_TYPE": "U", "NORAD_CAT_ID": 31268, "ELEMENT_SET_NO": 999, "REV_AT_EPOCH": 61865, "BSTAR": 0.00085236082, "MEAN_MOTION_DOT": 1.38e-05, "MEAN_MOTION_DDOT": 0}, "tle": {"line1": "1 31268U 99025BNA 25334.83417946  .00001380  00000+0  85236-3 0  9992", "line2": "2 31268  98.7575  17.4295 0049296 216.6529 143.1264 14.06369123618654"}}, "geometry": {"type": "Point", "coordinates": [173.7297671012046, -70.72683451068384]}}, {"type": "Feature", "properties": {"norad_id": 31269, "name": "FENGYUN 1C DEB", "group": "fengyun-1c-debris", "lat": -9.826475966103281, "lon": 34.36985855289767, "alt_km": 819.0056612442331, "timestamp": "2025-12-03T08:58:46.283122+00:00", "meta": {"OBJECT_NAME": "FENGYUN 1C DEB", "OBJECT_ID": "1999-025BNB", "EPOCH": "2025-12-03T03:48:23.040000", "MEAN_MOTION": 14.43357493, "ECCENTRICITY": 0.0241879, "INCLINATION": 98.1813, "RA_OF_ASC_NODE": 215.5904, "ARG_OF_PERICENTER": 304.7694, "MEAN_ANOMALY": 208.2381, "EPHEMERIS_TYPE": 0, "CLASSIFICATION_TYPE": "U", "NORAD_CAT_ID": 31269, "ELEMENT_SET_NO": 999, "REV_AT_EPOCH": 96348, "BSTAR": 0.0032608, "MEAN_MOTION_DOT": 0.00015677, "MEAN_MOTION_DDOT": 0}, "tle": {"line1": "1 31269U 99025BNB 25337.15860000  .00015677  00000+0  32608-2 0  9992", "line2": "2 31269  98.1813 215.5904 0241879 304.7694 208.2381 14.43357493963480"}}, "geometry": {"type": "Point", "coordinates": [34.36985855289767, -9.826475966103281]}}]}